CCSDS_OMM_VERS = 2.0
CREATION_DATE  = 
ORIGINATOR     = 

OBJECT_NAME    = ISS (ZARYA)
OBJECT_ID      = 1998-067A
CENTER_NAME    = EARTH
REF_FRAME      = TEME
TIME_SYSTEM    = UTC
MEAN_ELEMENT_THEORY = SGP/SGP4

EPOCH          = 2026-02-06T20:34:44.512032
MEAN_MOTION    = 15.48447561
ECCENTRICITY   = .0011112
INCLINATION    = 51.6318
RA_OF_ASC_NODE = 224.7731
ARG_OF_PERICENTER = 72.2083
MEAN_ANOMALY   = 288.0117

EPHEMERIS_TYPE = 0
CLASSIFICATION_TYPE = U
NORAD_CAT_ID   = 25544
ELEMENT_SET_NO = 999
REV_AT_EPOCH   = 55155
BSTAR          = .23308E-3
MEAN_MOTION_DOT = .12189E-3
MEAN_MOTION_DDOT = 0

CCSDS_OMM_VERS = 2.0
CREATION_DATE  = 
ORIGINATOR     = 

OBJECT_NAME    = CSS (TIANHE)
OBJECT_ID      = 2021-035A
CENTER_NAME    = EARTH
REF_FRAME      = TEME
TIME_SYSTEM    = UTC
MEAN_ELEMENT_THEORY = SGP/SGP4

EPOCH          = 2026-02-07T02:44:02.841792
MEAN_MOTION    = 15.59307546
ECCENTRICITY   = .0004962
INCLINATION    = 41.4674
RA_OF_ASC_NODE = 34.0120
ARG_OF_PERICENTER = 18.8845
MEAN_ANOMALY   = 341.2177

EPHEMERIS_TYPE = 0
CLASSIFICATION_TYPE = U
NORAD_CAT_ID   = 48274
ELEMENT_SET_NO = 999
REV_AT_EPOCH   = 27283
BSTAR          = .28917E-3
MEAN_MOTION_DOT = .23168E-3
MEAN_MOTION_DDOT = 0

CCSDS_OMM_VERS = 2.0
CREATION_DATE  = 
ORIGINATOR     = 

OBJECT_NAME    = ISS (NAUKA)
OBJECT_ID      = 2021-066A
CENTER_NAME    = EARTH
REF_FRAME      = TEME
TIME_SYSTEM    = UTC
MEAN_ELEMENT_THEORY = SGP/SGP4

EPOCH          = 2026-02-06T20:34:44.512896
MEAN_MOTION    = 15.48447561
ECCENTRICITY   = .00111123
INCLINATION    = 51.6318
RA_OF_ASC_NODE = 224.7731
ARG_OF_PERICENTER = 72.2083
MEAN_ANOMALY   = 288.0117

EPHEMERIS_TYPE = 0
CLASSIFICATION_TYPE = U
NORAD_CAT_ID   = 49044
ELEMENT_SET_NO = 999
REV_AT_EPOCH   = 23044
BSTAR          = .23308318E-3
MEAN_MOTION_DOT = .12189E-3
MEAN_MOTION_DDOT = 0

CCSDS_OMM_VERS = 2.0
CREATION_DATE  = 
ORIGINATOR     = 

OBJECT_NAME    = CSS (WENTIAN)
OBJECT_ID      = 2022-085A
CENTER_NAME    = EARTH
REF_FRAME      = TEME
TIME_SYSTEM    = UTC
MEAN_ELEMENT_THEORY = SGP/SGP4

EPOCH          = 2026-02-06T11:21:45.182304
MEAN_MOTION    = 15.59287012
ECCENTRICITY   = .00053968
INCLINATION    = 41.4680
RA_OF_ASC_NODE = 37.9008
ARG_OF_PERICENTER = 13.3696
MEAN_ANOMALY   = 346.7284

EPHEMERIS_TYPE = 0
CLASSIFICATION_TYPE = U
NORAD_CAT_ID   = 53239
ELEMENT_SET_NO = 999
REV_AT_EPOCH   = 17384
BSTAR          = .28124092E-3
MEAN_MOTION_DOT = .22506E-3
MEAN_MOTION_DDOT = 0

CCSDS_OMM_VERS = 2.0
CREATION_DATE  = 
ORIGINATOR     = 

OBJECT_NAME    = CSS (MENGTIAN)
OBJECT_ID      = 2022-143A
CENTER_NAME    = EARTH
REF_FRAME      = TEME
TIME_SYSTEM    = UTC
MEAN_ELEMENT_THEORY = SGP/SGP4

EPOCH          = 2026-02-06T11:21:45.182304
MEAN_MOTION    = 15.59287012
ECCENTRICITY   = .00053968
INCLINATION    = 41.4680
RA_OF_ASC_NODE = 37.9008
ARG_OF_PERICENTER = 13.3696
MEAN_ANOMALY   = 346.7284

EPHEMERIS_TYPE = 0
CLASSIFICATION_TYPE = U
NORAD_CAT_ID   = 54216
ELEMENT_SET_NO = 999
REV_AT_EPOCH   = 15864
BSTAR          = .28124092E-3
MEAN_MOTION_DOT = .22506E-3
MEAN_MOTION_DDOT = 0

CCSDS_OMM_VERS = 2.0
CREATION_DATE  = 
ORIGINATOR     = 

OBJECT_NAME    = PROGRESS-MS 31
OBJECT_ID      = 2025-146A
CENTER_NAME    = EARTH
REF_FRAME      = TEME
TIME_SYSTEM    = UTC
MEAN_ELEMENT_THEORY = SGP/SGP4

EPOCH          = 2026-02-06T20:34:44.512896
MEAN_MOTION    = 15.48447561
ECCENTRICITY   = .00111123
INCLINATION    = 51.6318
RA_OF_ASC_NODE = 224.7731
ARG_OF_PERICENTER = 72.2083
MEAN_ANOMALY   = 288.0117

EPHEMERIS_TYPE = 0
CLASSIFICATION_TYPE = U
NORAD_CAT_ID   = 64751
ELEMENT_SET_NO = 999
REV_AT_EPOCH   = 675
BSTAR          = .23308318E-3
MEAN_MOTION_DOT = .12189E-3
MEAN_MOTION_DDOT = 0

CCSDS_OMM_VERS = 2.0
CREATION_DATE  = 
ORIGINATOR     = 

OBJECT_NAME    = TIANZHOU-9
OBJECT_ID      = 2025-149A
CENTER_NAME    = EARTH
REF_FRAME      = TEME
TIME_SYSTEM    = UTC
MEAN_ELEMENT_THEORY = SGP/SGP4

EPOCH          = 2026-02-06T11:21:45.182304
MEAN_MOTION    = 15.59287012
ECCENTRICITY   = .00053968
INCLINATION    = 41.4680
RA_OF_ASC_NODE = 37.9008
ARG_OF_PERICENTER = 13.3696
MEAN_ANOMALY   = 346.7284

EPHEMERIS_TYPE = 0
CLASSIFICATION_TYPE = U
NORAD_CAT_ID   = 64786
ELEMENT_SET_NO = 999
REV_AT_EPOCH   = 25530
BSTAR          = .28124092E-3
MEAN_MOTION_DOT = .22506E-3
MEAN_MOTION_DDOT = 0

CCSDS_OMM_VERS = 2.0
CREATION_DATE  = 
ORIGINATOR     = 

OBJECT_NAME    = DRAGON CRS-33
OBJECT_ID      = 2025-186A
CENTER_NAME    = EARTH
REF_FRAME      = TEME
TIME_SYSTEM    = UTC
MEAN_ELEMENT_THEORY = SGP/SGP4

EPOCH          = 2026-02-06T20:34:44.512896
MEAN_MOTION    = 15.48447561
ECCENTRICITY   = .00111123
INCLINATION    = 51.6318
RA_OF_ASC_NODE = 224.7731
ARG_OF_PERICENTER = 72.2083
MEAN_ANOMALY   = 288.0117

EPHEMERIS_TYPE = 0
CLASSIFICATION_TYPE = U
NORAD_CAT_ID   = 65304
ELEMENT_SET_NO = 999
REV_AT_EPOCH   = 11
BSTAR          = .23308318E-3
MEAN_MOTION_DOT = .12189E-3
MEAN_MOTION_DDOT = 0

CCSDS_OMM_VERS = 2.0
CREATION_DATE  = 
ORIGINATOR     = 

OBJECT_NAME    = PROGRESS-MS 32
OBJECT_ID      = 2025-204A
CENTER_NAME    = EARTH
REF_FRAME      = TEME
TIME_SYSTEM    = UTC
MEAN_ELEMENT_THEORY = SGP/SGP4

EPOCH          = 2026-02-06T20:34:44.512896
MEAN_MOTION    = 15.48447561
ECCENTRICITY   = .00111123
INCLINATION    = 51.6318
RA_OF_ASC_NODE = 224.7731
ARG_OF_PERICENTER = 72.2083
MEAN_ANOMALY   = 288.0117

EPHEMERIS_TYPE = 0
CLASSIFICATION_TYPE = U
NORAD_CAT_ID   = 65586
ELEMENT_SET_NO = 999
REV_AT_EPOCH   = 27
BSTAR          = .23308318E-3
MEAN_MOTION_DOT = .12189E-3
MEAN_MOTION_DDOT = 0

CCSDS_OMM_VERS = 2.0
CREATION_DATE  = 
ORIGINATOR     = 

OBJECT_NAME    = CYGNUS NG-23
OBJECT_ID      = 2025-208A
CENTER_NAME    = EARTH
REF_FRAME      = TEME
TIME_SYSTEM    = UTC
MEAN_ELEMENT_THEORY = SGP/SGP4

EPOCH          = 2026-02-06T20:34:44.512896
MEAN_MOTION    = 15.48447561
ECCENTRICITY   = .00111123
INCLINATION    = 51.6318
RA_OF_ASC_NODE = 224.7731
ARG_OF_PERICENTER = 72.2083
MEAN_ANOMALY   = 288.0117

EPHEMERIS_TYPE = 0
CLASSIFICATION_TYPE = U
NORAD_CAT_ID   = 65616
ELEMENT_SET_NO = 999
REV_AT_EPOCH   = 22
BSTAR          = .23308318E-3
MEAN_MOTION_DOT = .12189E-3
MEAN_MOTION_DDOT = 0

CCSDS_OMM_VERS = 2.0
CREATION_DATE  = 
ORIGINATOR     = 

OBJECT_NAME    = 1998-067XK
OBJECT_ID      = 1998-067XK
CENTER_NAME    = EARTH
REF_FRAME      = TEME
TIME_SYSTEM    = UTC
MEAN_ELEMENT_THEORY = SGP/SGP4

EPOCH          = 2026-02-06T16:52:14.799648
MEAN_MOTION    = 15.83449040
ECCENTRICITY   = .00035196
INCLINATION    = 51.6226
RA_OF_ASC_NODE = 210.1936
ARG_OF_PERICENTER = 254.1842
MEAN_ANOMALY   = 105.8773

EPHEMERIS_TYPE = 0
CLASSIFICATION_TYPE = U
NORAD_CAT_ID   = 65731
ELEMENT_SET_NO = 999
REV_AT_EPOCH   = 2195
BSTAR          = .12463538E-2
MEAN_MOTION_DOT = .286625E-2
MEAN_MOTION_DDOT = 0

