ISS (ZARYA)             
1 25544U 98067A   26037.85745963  .00012189  00000+0  23308-3 0  9994
2 25544  51.6318 224.7731 0011112  72.2083 288.0117 15.48447561551553
CSS (TIANHE)            
1 48274U 21035A   26038.11392178  .00023168  00000+0  28917-3 0  9996
2 48274  41.4674  34.0120 0004962  18.8845 341.2177 15.59307546272830
ISS (NAUKA)             
1 49044U 21066A   26037.85745964  .00012189  00000+0  23308-3 0  9991
2 49044  51.6318 224.7731 0011112  72.2083 288.0117 15.48447561230446
CSS (WENTIAN)           
1 53239U 22085A   26037.47343961  .00022506  00000+0  28124-3 0  9998
2 53239  41.4680  37.9008 0005396  13.3696 346.7284 15.59287012173842
CSS (MENGTIAN)          
1 54216U 22143A   26037.47343961  .00022506  00000+0  28124-3 0  9999
2 54216  41.4680  37.9008 0005396  13.3696 346.7284 15.59287012158649
PROGRESS-MS 31          
1 64751U 25146A   26037.85745964  .00012189  00000+0  23308-3 0  9996
2 64751  51.6318 224.7731 0011112  72.2083 288.0117 15.48447561  6753
TIANZHOU-9              
1 64786U 25149A   26037.47343961  .00022506  00000+0  28124-3 0  9991
2 64786  41.4680  37.9008 0005396  13.3696 346.7284 15.59287012255303
DRAGON CRS-33           
1 65304U 25186A   26037.85745964  .00012189  00000+0  23308-3 0  9995
2 65304  51.6318 224.7731 0011112  72.2083 288.0117 15.48447561   112
PROGRESS-MS 32          
1 65586U 25204A   26037.85745964  .00012189  00000+0  23308-3 0  9998
2 65586  51.6318 224.7731 0011112  72.2083 288.0117 15.48447561   271
CYGNUS NG-23            
1 65616U 25208A   26037.85745964  .00012189  00000+0  23308-3 0  9996
2 65616  51.6318 224.7731 0011112  72.2083 288.0117 15.48447561   220
1998-067XK              
1 65731U 98067XK  26037.70294907  .00286625  00000+0  12464-2 0  9995
2 65731  51.6226 210.1936 0003519 254.1842 105.8773 15.83449040 21958
